STARLINK-32017          
1 60032U 24111S   26068.43367630 -.00001222  00000+0 -29137-4 0  9998
2 60032  53.1598  76.8789 0001211  70.1319 289.9812 15.30188427 98998
2025-313BE              
1 67482U 25313BE  26068.69721505  .00077178  00000+0  26504-2 0  9996
2 67482  97.3989 145.3568 0007208 335.3714  24.7181 15.29801687  7972
